NORAD_CAT_ID,OBJECT_NAME,OBJECT_TYPE,EPOCH,MEAN_MOTION,ECCENTRICITY,INCLINATION,RA_OF_ASC_NODE,ARG_OF_PERICENTER,MEAN_ANOMALY,BSTAR,MEAN_MOTION_DOT,MEAN_MOTION_DDOT,TLE_LINE0,TLE_LINE1,TLE_LINE2,SEMIMAJOR_AXIS,PERIOD,APOGEE,PERIGEE,DECAYED
52621.0,STARLINK-3984,PAYLOAD,2022-09-11 12:00:00,15.08826789,0.0002045999999999,53.2154,233.6723,45.119,63.0268,0.00036195,5.475e-05,0.0,0 STARLINK-3984,1 52621U 22052Z   22254.50001157  .00005475  00000-0  36195-3 0  9999,2 52621  53.2154 233.6723 0002046  45.1190  63.0268 15.08826789 18857,6917.920999999999,95.438,541.201,538.37,0.0
52621.0,STARLINK-3984,PAYLOAD,2022-09-11 14:00:01,15.08844722,0.0001954,53.2154,233.3013,47.6651,153.3745,-0.0015731,-0.00025241,0.0,0 STARLINK-3984,1 52621U 22052Z   22254.58334491 -.00025241  00000-0 -15731-2 0  9994,2 52621  53.2154 233.3013 0001954  47.6651 153.3745 15.08844722  1304,6917.866,95.437,541.0830000000002,538.379,0.0
52621.0,STARLINK-3984,PAYLOAD,2022-09-11 22:00:00,15.08829133,0.0001888,53.2158,231.8038,53.7933,158.8361,0.002041,0.00032335,0.0,0 STARLINK-3984,1 52621U 22052Z   22254.91667824  .00032335  00000-0  20410-2 0  9990,2 52621  53.2158 231.8038 0001888  53.7933 158.8361 15.08829133  1308,6917.9140000000025,95.438,541.085,538.4730000000002,0.0
52621.0,STARLINK-3984,PAYLOAD,2022-09-12 14:00:01,15.08846225,0.0001914,53.2162,228.8119,47.3498,188.4752,-0.0015405999999999,-0.00024728,0.0,0 STARLINK-3984,1 52621U 22052Z   22255.58334491 -.00024728  00000-0 -15406-2 0  9993,2 52621  53.2162 228.8119 0001914  47.3498 188.4752 15.08846225  1308,6917.861,95.437,541.05,538.4019999999998,0.0
52621.0,STARLINK-3984,PAYLOAD,2022-09-12 20:00:01,15.08818213,0.0001817,53.2164,227.6886,51.9263,102.6614,0.0031145,0.00049599,0.0,0 STARLINK-3984,1 52621U 22052Z   22255.83335648  .00049599  00000-0  31145-2 0  9995,2 52621  53.2164 227.6886 0001817  51.9263 102.6614 15.08818213 19053,6917.946999999999,95.439,541.069,538.555,0.0
52621.0,STARLINK-3984,PAYLOAD,2022-09-12 22:00:00,15.08835163,0.0001838,53.2166,227.3146,53.5765,193.8391,0.0019521,0.00030912,0.0,0 STARLINK-3984,1 52621U 22052Z   22255.91667824  .00030912  00000-0  19521-2 0  9991,2 52621  53.2166 227.3146 0001838  53.5765 193.8391 15.08835163  1305,6917.895,95.438,541.0319999999998,538.489,0.0
52621.0,STARLINK-3984,PAYLOAD,2022-09-13 04:00:00,15.08866416,0.0001940999999999,53.2166,226.1938,48.5298,117.5852,-0.0033523,-0.00053285,0.0,0 STARLINK-3984,1 52621U 22052Z   22256.16667824 -.00053285  00000-0 -33523-2 0  9997,2 52621  53.2166 226.1938 0001941  48.5298 117.5852 15.08866416 19108,6917.8,95.436,541.007,538.322,0.0
52621.0,STARLINK-3984,PAYLOAD,2022-09-13 14:00:01,15.08849985,0.0001851,53.2167,224.3228,47.4075,223.2049,-0.0015688,-0.00025176,0.0,0 STARLINK-3984,1 52621U 22052Z   22256.58334491 -.00025176  00000-0 -15688-2 0  9994,2 52621  53.2167 224.3228 0001851  47.4075 223.2049 15.08849985  1300,6917.85,95.437,540.995,538.434,0.0
52621.0,STARLINK-3984,PAYLOAD,2022-09-13 16:00:00,15.08835197,0.0001802,53.2171,223.9462,49.3386,314.1788,0.00036171,5.473e-05,0.0,0 STARLINK-3984,1 52621U 22052Z   22256.66667824  .00005473  00000-0  36171-3 0  9999,2 52621  53.2171 223.9462 0001802  49.3386 314.1788 15.08835197 19187,6917.895,95.438,541.007,538.513,0.0
52621.0,STARLINK-3984,PAYLOAD,2022-09-13 22:00:00,15.08850602,0.000181,53.2169,222.8254,54.7371,227.4663,-0.0014577,-0.00023419,0.0,0 STARLINK-3984,1 52621U 22052Z   22256.91667824 -.00023419  00000-0 -14577-2 0  9994,2 52621  53.2169 222.8254 0001810  54.7371 227.4663 15.08850602  1305,6917.848000000001,95.437,540.965,538.461,0.0
52621.0,STARLINK-3984,PAYLOAD,2022-09-14 04:00:00,15.08823414,0.0002004,53.2168,221.7049,51.0056,149.8954,-0.000404,-6.709e-05,0.0,0 STARLINK-3984,1 52621U 22052Z   22257.16667824 -.00006709  00000-0 -40400-3 0  9990,2 52621  53.2168 221.7049 0002004  51.0056 149.8954 15.08823414 19254,6917.931,95.439,541.182,538.41,0.0
52621.0,STARLINK-3984,PAYLOAD,2022-09-14 14:00:01,15.08755328,0.0001798,53.2172,219.8245,54.0424,251.3526,0.0069210999999999,0.00111348,0.0,0 STARLINK-3984,1 52621U 22052Z   22257.58334491  .00111348  00000-0  69211-2 0  9991,2 52621  53.2172 219.8245 0001798  54.0424 251.3526 15.08755328  1305,6918.139,95.443,541.248,538.76,0.0
52621.0,STARLINK-3984,PAYLOAD,2022-09-14 22:00:00,15.08836263,0.0001641999999999,53.2177,218.324,57.3559,259.5825,0.00012119,1.641e-05,0.0,0 STARLINK-3984,1 52621U 22052Z   22257.91667824  .00001641  00000-0  12119-3 0  9997,2 52621  53.2177 218.3240 0001642  57.3559 259.5825 15.08836263  1302,6917.892,95.438,540.893,538.621,0.0
52621.0,STARLINK-3984,PAYLOAD,2022-09-15 04:00:00,15.08835832,0.0001699999999999,53.2175,217.2033,54.5767,181.0555,9.5998e-05,1.24e-05,0.0,0 STARLINK-3984,1 52621U 22052Z   22258.16667824  .00001240  00000-0  95998-4 0  9997,2 52621  53.2175 217.2033 0001700  54.5767 181.0555 15.08835832 19403,6917.893,95.438,540.934,538.582,0.0
52621.0,STARLINK-3984,PAYLOAD,2022-09-15 14:00:01,15.08848936,0.0001803,53.2163,215.3449,52.4567,287.7112,-0.00098007,-0.00015856,0.0,0 STARLINK-3984,1 52621U 22052Z   22258.58334491 -.00015856  00000-0 -98007-3 0  9997,2 52621  53.2163 215.3449 0001803  52.4567 287.7112 15.08848936  1301,6917.853,95.437,540.965,538.471,0.0
52621.0,STARLINK-3984,PAYLOAD,2022-09-15 20:26:50,15.0884035,0.0001914,53.2174,214.1399,52.8908,307.2259,0.00010443,1.374e-05,0.0,0 STARLINK-3984,1 52621U 22052Z   22258.85197532  .00001374  00000-0  10443-3 0  9996,2 52621  53.2174 214.1399 0001914  52.8908 307.2259 15.08840350 19514,6917.879,95.438,541.068,538.42,0.0
52621.0,STARLINK-3984,PAYLOAD,2022-09-16 05:59:09,15.08846172,0.0001878,53.2169,212.3553,48.85,311.2653,8.4315e-05,1.054e-05,0.0,0 STARLINK-3984,1 52621U 22052Z   22259.24941277  .00001054  00000-0  84315-4 0  9998,2 52621  53.2169 212.3553 0001878  48.8500 311.2653 15.08846172 19197,6917.861999999999,95.437,541.026,538.427,0.0
52621.0,STARLINK-3984,PAYLOAD,2022-09-16 13:56:05,15.0882988,0.0001926,53.2177,210.8685,55.7483,304.3691,7.4452e-05,8.97e-06,0.0,0 STARLINK-3984,1 52621U 22052Z   22259.58062477  .00000897  00000-0  74452-4 0  9996,2 52621  53.2177 210.8685 0001926  55.7483 304.3691 15.08829880 19244,6917.911,95.438,541.109,538.444,0.0
52621.0,STARLINK-3984,PAYLOAD,2022-09-17 04:14:35,15.08823311,0.0001795,53.2179,208.1935,55.7951,304.3212,-7.232899999999999e-05,-1.438e-05,0.0,0 STARLINK-3984,1 52621U 22052Z   22260.17679638 -.00001438  00000-0 -72329-4 0  9991,2 52621  53.2179 208.1935 0001795  55.7951 304.3212 15.08823311 19712,6917.931,95.439,541.038,538.555,0.0
52621.0,STARLINK-3984,PAYLOAD,2022-09-18 04:05:21,15.08839334,0.0001867,53.2178,203.7318,50.2295,309.8861,2.9478e-05,1.81e-06,0.0,0 STARLINK-3984,1 52621U 22052Z   22261.17038930  .00000181  00000-0  29478-4 0  9995,2 52621  53.2178 203.7318 0001867  50.2295 309.8861 15.08839334 19866,6917.882,95.438,541.039,538.456,0.0
52621.0,STARLINK-3984,PAYLOAD,2022-09-18 13:37:39,15.08847277,0.0001754,53.2179,201.9478,53.8837,306.2317,9.2191e-05,1.18e-05,0.0,0 STARLINK-3984,1 52621U 22052Z   22261.56782225  .00001180  00000-0  92191-4 0  9993,2 52621  53.2179 201.9478 0001754  53.8837 306.2317 15.08847277 19929,6917.858,95.437,540.937,538.51,0.0
52621.0,STARLINK-3984,PAYLOAD,2022-09-18 19:59:12,15.08841439,0.0001679,53.2178,200.7578,52.2199,307.8945,0.00027475,4.087e-05,0.0,0 STARLINK-3984,1 52621U 22052Z   22261.83278210  .00004087  00000-0  27475-3 0  9998,2 52621  53.2178 200.7578 0001679  52.2199 307.8945 15.08841439 19586,6917.876,95.437,540.903,538.5790000000002,0.0
52621.0,STARLINK-3984,PAYLOAD,2022-09-19 02:20:44,15.08843396,0.0001785,53.2184,199.5702,45.2815,314.8322,0.00027654,4.116e-05,0.0,0 STARLINK-3984,1 52621U 22052Z   22262.09774262  .00004116  00000-0  27654-3 0  9997,2 52621  53.2184 199.5702 0001785  45.2815 314.8322 15.08843396 19628,6917.87,95.437,540.97,538.5,0.0
52621.0,STARLINK-3984,PAYLOAD,2022-09-19 19:49:59,15.08849716,0.0002143,53.2182,196.3016,31.4254,328.6865,-1.8978e-06,-3.19e-06,0.0,0 STARLINK-3984,1 52621U 22052Z   22262.82638797 -.00000319  00000-0 -18978-5 0  9994,2 52621  53.2182 196.3016 0002143  31.4254 328.6865 15.08849716 19731,6917.851,95.437,541.198,538.2330000000002,0.0
52621.0,STARLINK-3984,PAYLOAD,2022-09-19 23:00:46,15.0884164,0.000196,53.218,195.7047,44.0688,316.046,5.1297e-05,5.28e-06,0.0,0 STARLINK-3984,1 52621U 22052Z   22262.95886991  .00000528  00000-0  51297-4 0  9999,2 52621  53.2180 195.7047 0001960  44.0688 316.0460 15.08841640 19755,6917.875,95.437,541.096,538.384,0.0
52621.0,STARLINK-3984,PAYLOAD,2022-09-21 05:13:05,15.08852404,0.0001918,53.2187,190.0554,53.1505,306.9662,1.7388e-07,-2.85e-06,0.0,0 STARLINK-3984,1 52621U 22052Z   22264.21742141 -.00000285  00000-0  17388-6 0  9994,2 52621  53.2187 190.0554 0001918  53.1505 306.9662 15.08852404 20322,6917.842,95.437,541.034,538.381,0.0
52621.0,STARLINK-3984,PAYLOAD,2022-09-21 11:34:38,15.08839863,0.0002289,53.2191,188.8623,49.1704,310.9486,5.4292e-05,5.76e-06,0.0,0 STARLINK-3984,1 52621U 22052Z   22264.48238895  .00000576  00000-0  54292-4 0  9994,2 52621  53.2191 188.8623 0002289  49.1704 310.9486 15.08839863 19980,6917.880999999999,95.438,541.3290000000002,538.1619999999998,0.0
52621.0,STARLINK-3984,PAYLOAD,2022-09-22 11:25:25,15.08838025,0.0001721999999999,53.2172,184.4014,35.7615,324.3492,2.5722e-05,1.21e-06,0.0,0 STARLINK-3984,1 52621U 22052Z   22265.47598996  .00000121  00000-0  25722-4 0  9997,2 52621  53.2172 184.4014 0001722  35.7615 324.3492 15.08838025 20132,6917.886,95.438,540.943,538.56,0.0
52621.0,STARLINK-3984,PAYLOAD,2022-09-23 01:43:53,15.08840694,0.0001933,53.218,181.7251,41.2743,318.8395,4.983100000000001e-05,5.05e-06,0.0,0 STARLINK-3984,1 52621U 22052Z   22266.07214844  .00000505  00000-0  49831-4 0  9994,2 52621  53.2180 181.7251 0001933  41.2743 318.8395 15.08840694 20609,6917.878000000002,95.438,541.08,538.406,0.0
